{"type":"FeatureCollection","features":[{"type":"Feature","properties":{"from":"Cape Town","to":"Windhoek","mode":"flight","geometry_quality":"planning connector between verified stop coordinates; not road-centerline routing"},"geometry":{"type":"LineString","coordinates":[[18.4171,-33.9277],[17.083225,-22.559409]]}},{"type":"Feature","properties":{"from":"Windhoek","to":"Sossusvlei","mode":"road_gravel","geometry_quality":"planning connector between verified stop coordinates; not road-centerline routing"},"geometry":{"type":"LineString","coordinates":[[17.083225,-22.559409],[15.28765,-24.73983]]}},{"type":"Feature","properties":{"from":"Sossusvlei","to":"Walvis Bay","mode":"road_gravel","geometry_quality":"planning connector between verified stop coordinates; not road-centerline routing"},"geometry":{"type":"LineString","coordinates":[[15.28765,-24.73983],[14.50528,-22.9575]]}},{"type":"Feature","properties":{"from":"Walvis Bay","to":"Etosha – Okaukuejo","mode":"road_time_first","geometry_quality":"planning connector between verified stop coordinates; not road-centerline routing"},"geometry":{"type":"LineString","coordinates":[[14.50528,-22.9575],[15.919,-19.1769]]}},{"type":"Feature","properties":{"from":"Etosha – Okaukuejo","to":"Divundu / Mahango","mode":"road_time_first","geometry_quality":"planning connector between verified stop coordinates; not road-centerline routing"},"geometry":{"type":"LineString","coordinates":[[15.919,-19.1769],[21.548321,-18.097115]]}},{"type":"Feature","properties":{"from":"Divundu / Mahango","to":"Maun","mode":"road_border","geometry_quality":"planning connector between verified stop coordinates; not road-centerline routing"},"geometry":{"type":"LineString","coordinates":[[21.548321,-18.097115],[23.416667,-19.983333]]}},{"type":"Feature","properties":{"from":"Maun","to":"Moremi – Xakanaxa","mode":"guided_4x4_or_flyin","geometry_quality":"planning connector between verified stop coordinates; not road-centerline routing"},"geometry":{"type":"LineString","coordinates":[[23.416667,-19.983333],[23.396,-19.181]]}},{"type":"Feature","properties":{"from":"Moremi – Xakanaxa","to":"Maun","mode":"guided_return","geometry_quality":"planning connector between verified stop coordinates; not road-centerline routing"},"geometry":{"type":"LineString","coordinates":[[23.396,-19.181],[23.416667,-19.983333]]}},{"type":"Feature","properties":{"from":"Maun","to":"Kasane / Chobe","mode":"flight","geometry_quality":"planning connector between verified stop coordinates; not road-centerline routing"},"geometry":{"type":"LineString","coordinates":[[23.416667,-19.983333],[25.16024,-17.80165]]}},{"type":"Feature","properties":{"from":"Kasane / Chobe","to":"Victoria Falls","mode":"shuttle_border","geometry_quality":"planning connector between verified stop coordinates; not road-centerline routing"},"geometry":{"type":"LineString","coordinates":[[25.16024,-17.80165],[25.8531,-17.9242]]}}]}