{"type":"FeatureCollection","features":[{"type":"Feature","properties":{"from":"Cape Town","to":"Stellenbosch","mode":"road","geometry_quality":"planning connector between verified stop coordinates; not road-centerline routing"},"geometry":{"type":"LineString","coordinates":[[18.4171,-33.9277],[18.871,-33.934]]}},{"type":"Feature","properties":{"from":"Stellenbosch","to":"Hermanus","mode":"road","geometry_quality":"planning connector between verified stop coordinates; not road-centerline routing"},"geometry":{"type":"LineString","coordinates":[[18.871,-33.934],[19.2345,-34.4187]]}},{"type":"Feature","properties":{"from":"Hermanus","to":"Wilderness","mode":"road","geometry_quality":"planning connector between verified stop coordinates; not road-centerline routing"},"geometry":{"type":"LineString","coordinates":[[19.2345,-34.4187],[22.577,-33.993]]}},{"type":"Feature","properties":{"from":"Wilderness","to":"Tsitsikamma","mode":"road","geometry_quality":"planning connector between verified stop coordinates; not road-centerline routing"},"geometry":{"type":"LineString","coordinates":[[22.577,-33.993],[23.8956,-34.0217]]}},{"type":"Feature","properties":{"from":"Tsitsikamma","to":"Windhoek","mode":"flight_connection","geometry_quality":"planning connector between verified stop coordinates; not road-centerline routing"},"geometry":{"type":"LineString","coordinates":[[23.8956,-34.0217],[17.083225,-22.559409]]}},{"type":"Feature","properties":{"from":"Windhoek","to":"Sossusvlei","mode":"road_gravel","geometry_quality":"planning connector between verified stop coordinates; not road-centerline routing"},"geometry":{"type":"LineString","coordinates":[[17.083225,-22.559409],[15.28765,-24.73983]]}},{"type":"Feature","properties":{"from":"Sossusvlei","to":"Walvis Bay","mode":"road_gravel","geometry_quality":"planning connector between verified stop coordinates; not road-centerline routing"},"geometry":{"type":"LineString","coordinates":[[15.28765,-24.73983],[14.50528,-22.9575]]}},{"type":"Feature","properties":{"from":"Walvis Bay","to":"Swakopmund","mode":"road","geometry_quality":"planning connector between verified stop coordinates; not road-centerline routing"},"geometry":{"type":"LineString","coordinates":[[14.50528,-22.9575],[14.52663,-22.67842]]}},{"type":"Feature","properties":{"from":"Swakopmund","to":"Spitzkoppe","mode":"road_gravel","geometry_quality":"planning connector between verified stop coordinates; not road-centerline routing"},"geometry":{"type":"LineString","coordinates":[[14.52663,-22.67842],[15.194167,-21.824722]]}},{"type":"Feature","properties":{"from":"Spitzkoppe","to":"Twyfelfontein","mode":"road_gravel","geometry_quality":"planning connector between verified stop coordinates; not road-centerline routing"},"geometry":{"type":"LineString","coordinates":[[15.194167,-21.824722],[14.3751,-20.59477]]}},{"type":"Feature","properties":{"from":"Twyfelfontein","to":"Etosha – Okaukuejo","mode":"road_gravel","geometry_quality":"planning connector between verified stop coordinates; not road-centerline routing"},"geometry":{"type":"LineString","coordinates":[[14.3751,-20.59477],[15.919,-19.1769]]}},{"type":"Feature","properties":{"from":"Etosha – Okaukuejo","to":"Etosha – Namutoni","mode":"park_road","geometry_quality":"planning connector between verified stop coordinates; not road-centerline routing"},"geometry":{"type":"LineString","coordinates":[[15.919,-19.1769],[16.94,-18.806]]}},{"type":"Feature","properties":{"from":"Etosha – Namutoni","to":"Rundu","mode":"road","geometry_quality":"planning connector between verified stop coordinates; not road-centerline routing"},"geometry":{"type":"LineString","coordinates":[[16.94,-18.806],[19.773143,-17.917965]]}},{"type":"Feature","properties":{"from":"Rundu","to":"Divundu / Mahango","mode":"road","geometry_quality":"planning connector between verified stop coordinates; not road-centerline routing"},"geometry":{"type":"LineString","coordinates":[[19.773143,-17.917965],[21.548321,-18.097115]]}},{"type":"Feature","properties":{"from":"Divundu / Mahango","to":"Tsodilo Hills","mode":"road_border","geometry_quality":"planning connector between verified stop coordinates; not road-centerline routing"},"geometry":{"type":"LineString","coordinates":[[21.548321,-18.097115],[21.7333,-18.75]]}},{"type":"Feature","properties":{"from":"Tsodilo Hills","to":"Maun","mode":"road","geometry_quality":"planning connector between verified stop coordinates; not road-centerline routing"},"geometry":{"type":"LineString","coordinates":[[21.7333,-18.75],[23.416667,-19.983333]]}},{"type":"Feature","properties":{"from":"Maun","to":"Nxai Pan","mode":"road_4x4","geometry_quality":"planning connector between verified stop coordinates; not road-centerline routing"},"geometry":{"type":"LineString","coordinates":[[23.416667,-19.983333],[24.768889,-20.041667]]}},{"type":"Feature","properties":{"from":"Nxai Pan","to":"Maun","mode":"road_return","geometry_quality":"planning connector between verified stop coordinates; not road-centerline routing"},"geometry":{"type":"LineString","coordinates":[[24.768889,-20.041667],[23.416667,-19.983333]]}},{"type":"Feature","properties":{"from":"Maun","to":"Moremi – Xakanaxa","mode":"road_4x4","geometry_quality":"planning connector between verified stop coordinates; not road-centerline routing"},"geometry":{"type":"LineString","coordinates":[[23.416667,-19.983333],[23.396,-19.181]]}},{"type":"Feature","properties":{"from":"Moremi – Xakanaxa","to":"Khwai","mode":"road_4x4","geometry_quality":"planning connector between verified stop coordinates; not road-centerline routing"},"geometry":{"type":"LineString","coordinates":[[23.396,-19.181],[23.75,-19.15]]}},{"type":"Feature","properties":{"from":"Khwai","to":"Savuti","mode":"road_4x4","geometry_quality":"planning connector between verified stop coordinates; not road-centerline routing"},"geometry":{"type":"LineString","coordinates":[[23.75,-19.15],[24.0667,-18.5667]]}},{"type":"Feature","properties":{"from":"Savuti","to":"Kasane / Chobe","mode":"road_4x4","geometry_quality":"planning connector between verified stop coordinates; not road-centerline routing"},"geometry":{"type":"LineString","coordinates":[[24.0667,-18.5667],[25.16024,-17.80165]]}},{"type":"Feature","properties":{"from":"Kasane / Chobe","to":"Victoria Falls","mode":"shuttle_border","geometry_quality":"planning connector between verified stop coordinates; not road-centerline routing"},"geometry":{"type":"LineString","coordinates":[[25.16024,-17.80165],[25.8531,-17.9242]]}},{"type":"Feature","properties":{"from":"Victoria Falls","to":"Livingstone (optional Zambia side)","mode":"walk_border_optional","geometry_quality":"planning connector between verified stop coordinates; not road-centerline routing"},"geometry":{"type":"LineString","coordinates":[[25.8531,-17.9242],[25.8543,-17.8419]]}},{"type":"Feature","properties":{"from":"Livingstone (optional Zambia side)","to":"Victoria Falls","mode":"walk_border_optional_return","geometry_quality":"planning connector between verified stop coordinates; not road-centerline routing"},"geometry":{"type":"LineString","coordinates":[[25.8543,-17.8419],[25.8531,-17.9242]]}}]}