{"type":"FeatureCollection","features":[{"type":"Feature","properties":{"from":"Haarlem","to":"Leiden","mode":"train","geometry_note":"Planning connector between verified stop coordinates; not turn-by-turn road/rail geometry."},"geometry":{"type":"LineString","coordinates":[[4.63683,52.38084],[4.4909,52.1595]]}},{"type":"Feature","properties":{"from":"Leiden","to":"Delft","mode":"train","geometry_note":"Planning connector between verified stop coordinates; not turn-by-turn road/rail geometry."},"geometry":{"type":"LineString","coordinates":[[4.4909,52.1595],[4.3584,52.0114]]}},{"type":"Feature","properties":{"from":"Delft","to":"Rotterdam","mode":"train","geometry_note":"Planning connector between verified stop coordinates; not turn-by-turn road/rail geometry."},"geometry":{"type":"LineString","coordinates":[[4.3584,52.0114],[4.4777,51.9244]]}},{"type":"Feature","properties":{"from":"Rotterdam","to":"Kinderdijk","mode":"ferry/local","geometry_note":"Planning connector between verified stop coordinates; not turn-by-turn road/rail geometry."},"geometry":{"type":"LineString","coordinates":[[4.4777,51.9244],[4.6336,51.887]]}},{"type":"Feature","properties":{"from":"Kinderdijk","to":"Rotterdam","mode":"ferry/local","geometry_note":"Planning connector between verified stop coordinates; not turn-by-turn road/rail geometry."},"geometry":{"type":"LineString","coordinates":[[4.6336,51.887],[4.4777,51.9244]]}},{"type":"Feature","properties":{"from":"Rotterdam","to":"Ghent","mode":"train","geometry_note":"Planning connector between verified stop coordinates; not turn-by-turn road/rail geometry."},"geometry":{"type":"LineString","coordinates":[[4.4777,51.9244],[3.7174,51.0543]]}},{"type":"Feature","properties":{"from":"Ghent","to":"Bruges","mode":"train","geometry_note":"Planning connector between verified stop coordinates; not turn-by-turn road/rail geometry."},"geometry":{"type":"LineString","coordinates":[[3.7174,51.0543],[3.2247,51.2093]]}},{"type":"Feature","properties":{"from":"Bruges","to":"Ypres","mode":"train/bus","geometry_note":"Planning connector between verified stop coordinates; not turn-by-turn road/rail geometry."},"geometry":{"type":"LineString","coordinates":[[3.2247,51.2093],[2.8869,50.8517]]}},{"type":"Feature","properties":{"from":"Ypres","to":"Lille","mode":"train/bus","geometry_note":"Planning connector between verified stop coordinates; not turn-by-turn road/rail geometry."},"geometry":{"type":"LineString","coordinates":[[2.8869,50.8517],[3.0573,50.6292]]}},{"type":"Feature","properties":{"from":"Lille","to":"Amiens","mode":"train","geometry_note":"Planning connector between verified stop coordinates; not turn-by-turn road/rail geometry."},"geometry":{"type":"LineString","coordinates":[[3.0573,50.6292],[2.2958,49.8941]]}},{"type":"Feature","properties":{"from":"Amiens","to":"Rouen","mode":"train","geometry_note":"Planning connector between verified stop coordinates; not turn-by-turn road/rail geometry."},"geometry":{"type":"LineString","coordinates":[[2.2958,49.8941],[1.0993,49.4432]]}},{"type":"Feature","properties":{"from":"Rouen","to":"Etretat","mode":"road","geometry_note":"Planning connector between verified stop coordinates; not turn-by-turn road/rail geometry."},"geometry":{"type":"LineString","coordinates":[[1.0993,49.4432],[0.205,49.706]]}},{"type":"Feature","properties":{"from":"Etretat","to":"Honfleur","mode":"road","geometry_note":"Planning connector between verified stop coordinates; not turn-by-turn road/rail geometry."},"geometry":{"type":"LineString","coordinates":[[0.205,49.706],[0.2339,49.4198]]}},{"type":"Feature","properties":{"from":"Honfleur","to":"Bayeux","mode":"road","geometry_note":"Planning connector between verified stop coordinates; not turn-by-turn road/rail geometry."},"geometry":{"type":"LineString","coordinates":[[0.2339,49.4198],[-0.703,49.2765]]}},{"type":"Feature","properties":{"from":"Bayeux","to":"Mont-Saint-Michel","mode":"road","geometry_note":"Planning connector between verified stop coordinates; not turn-by-turn road/rail geometry."},"geometry":{"type":"LineString","coordinates":[[-0.703,49.2765],[-1.5115,48.6361]]}},{"type":"Feature","properties":{"from":"Mont-Saint-Michel","to":"Saint-Malo","mode":"road","geometry_note":"Planning connector between verified stop coordinates; not turn-by-turn road/rail geometry."},"geometry":{"type":"LineString","coordinates":[[-1.5115,48.6361],[-2.0083,48.6493]]}},{"type":"Feature","properties":{"from":"Saint-Malo","to":"Perros-Guirec","mode":"road","geometry_note":"Planning connector between verified stop coordinates; not turn-by-turn road/rail geometry."},"geometry":{"type":"LineString","coordinates":[[-2.0083,48.6493],[-3.4431,48.8143]]}},{"type":"Feature","properties":{"from":"Perros-Guirec","to":"Morlaix","mode":"road","geometry_note":"Planning connector between verified stop coordinates; not turn-by-turn road/rail geometry."},"geometry":{"type":"LineString","coordinates":[[-3.4431,48.8143],[-3.827,48.5778]]}},{"type":"Feature","properties":{"from":"Morlaix","to":"Crozon","mode":"road","geometry_note":"Planning connector between verified stop coordinates; not turn-by-turn road/rail geometry."},"geometry":{"type":"LineString","coordinates":[[-3.827,48.5778],[-4.489,48.246]]}},{"type":"Feature","properties":{"from":"Crozon","to":"Brest","mode":"road","geometry_note":"Planning connector between verified stop coordinates; not turn-by-turn road/rail geometry."},"geometry":{"type":"LineString","coordinates":[[-4.489,48.246],[-4.4861,48.3904]]}},{"type":"Feature","properties":{"from":"Brest","to":"Quimper","mode":"road","geometry_note":"Planning connector between verified stop coordinates; not turn-by-turn road/rail geometry."},"geometry":{"type":"LineString","coordinates":[[-4.4861,48.3904],[-4.1025,47.9959]]}},{"type":"Feature","properties":{"from":"Quimper","to":"Carnac","mode":"road","geometry_note":"Planning connector between verified stop coordinates; not turn-by-turn road/rail geometry."},"geometry":{"type":"LineString","coordinates":[[-4.1025,47.9959],[-3.0786,47.5847]]}},{"type":"Feature","properties":{"from":"Carnac","to":"Vannes","mode":"road","geometry_note":"Planning connector between verified stop coordinates; not turn-by-turn road/rail geometry."},"geometry":{"type":"LineString","coordinates":[[-3.0786,47.5847],[-2.7608,47.6582]]}},{"type":"Feature","properties":{"from":"Vannes","to":"Nantes","mode":"road","geometry_note":"Planning connector between verified stop coordinates; not turn-by-turn road/rail geometry."},"geometry":{"type":"LineString","coordinates":[[-2.7608,47.6582],[-1.5536,47.2184]]}}]}