{"type":"FeatureCollection","features":[{"type":"Feature","properties":{"from":"Ghent","to":"Bruges","mode":"train","geometry_note":"Planning connector between verified stop coordinates; not turn-by-turn road/rail geometry."},"geometry":{"type":"LineString","coordinates":[[3.7174,51.0543],[3.2247,51.2093]]}},{"type":"Feature","properties":{"from":"Bruges","to":"Lille","mode":"train/bus","geometry_note":"Planning connector between verified stop coordinates; not turn-by-turn road/rail geometry."},"geometry":{"type":"LineString","coordinates":[[3.2247,51.2093],[3.0573,50.6292]]}},{"type":"Feature","properties":{"from":"Lille","to":"Amiens","mode":"train","geometry_note":"Planning connector between verified stop coordinates; not turn-by-turn road/rail geometry."},"geometry":{"type":"LineString","coordinates":[[3.0573,50.6292],[2.2958,49.8941]]}},{"type":"Feature","properties":{"from":"Amiens","to":"Rouen","mode":"train","geometry_note":"Planning connector between verified stop coordinates; not turn-by-turn road/rail geometry."},"geometry":{"type":"LineString","coordinates":[[2.2958,49.8941],[1.0993,49.4432]]}},{"type":"Feature","properties":{"from":"Rouen","to":"Etretat","mode":"road","geometry_note":"Planning connector between verified stop coordinates; not turn-by-turn road/rail geometry."},"geometry":{"type":"LineString","coordinates":[[1.0993,49.4432],[0.205,49.706]]}},{"type":"Feature","properties":{"from":"Etretat","to":"Bayeux","mode":"road","geometry_note":"Planning connector between verified stop coordinates; not turn-by-turn road/rail geometry."},"geometry":{"type":"LineString","coordinates":[[0.205,49.706],[-0.703,49.2765]]}},{"type":"Feature","properties":{"from":"Bayeux","to":"Mont-Saint-Michel","mode":"road","geometry_note":"Planning connector between verified stop coordinates; not turn-by-turn road/rail geometry."},"geometry":{"type":"LineString","coordinates":[[-0.703,49.2765],[-1.5115,48.6361]]}},{"type":"Feature","properties":{"from":"Mont-Saint-Michel","to":"Saint-Malo","mode":"road","geometry_note":"Planning connector between verified stop coordinates; not turn-by-turn road/rail geometry."},"geometry":{"type":"LineString","coordinates":[[-1.5115,48.6361],[-2.0083,48.6493]]}},{"type":"Feature","properties":{"from":"Saint-Malo","to":"Perros-Guirec","mode":"road","geometry_note":"Planning connector between verified stop coordinates; not turn-by-turn road/rail geometry."},"geometry":{"type":"LineString","coordinates":[[-2.0083,48.6493],[-3.4431,48.8143]]}},{"type":"Feature","properties":{"from":"Perros-Guirec","to":"Crozon","mode":"road","geometry_note":"Planning connector between verified stop coordinates; not turn-by-turn road/rail geometry."},"geometry":{"type":"LineString","coordinates":[[-3.4431,48.8143],[-4.489,48.246]]}},{"type":"Feature","properties":{"from":"Crozon","to":"Quimper","mode":"road","geometry_note":"Planning connector between verified stop coordinates; not turn-by-turn road/rail geometry."},"geometry":{"type":"LineString","coordinates":[[-4.489,48.246],[-4.1025,47.9959]]}},{"type":"Feature","properties":{"from":"Quimper","to":"Nantes","mode":"road","geometry_note":"Planning connector between verified stop coordinates; not turn-by-turn road/rail geometry."},"geometry":{"type":"LineString","coordinates":[[-4.1025,47.9959],[-1.5536,47.2184]]}}]}