{"type":"FeatureCollection","features":[{"type":"Feature","properties":{"name":"Haarlem","order":1,"country":"Netherlands","coordinate_source":"GeoNames/OSM/UNESCO or standard city reference; verified 2026-08-24"},"geometry":{"type":"Point","coordinates":[4.63683,52.38084]}},{"type":"Feature","properties":{"name":"Leiden","order":2,"country":"Netherlands","coordinate_source":"GeoNames/OSM/UNESCO or standard city reference; verified 2026-08-24"},"geometry":{"type":"Point","coordinates":[4.4909,52.1595]}},{"type":"Feature","properties":{"name":"Delft","order":3,"country":"Netherlands","coordinate_source":"GeoNames/OSM/UNESCO or standard city reference; verified 2026-08-24"},"geometry":{"type":"Point","coordinates":[4.3584,52.0114]}},{"type":"Feature","properties":{"name":"Rotterdam","order":4,"country":"Netherlands","coordinate_source":"GeoNames/OSM/UNESCO or standard city reference; verified 2026-08-24"},"geometry":{"type":"Point","coordinates":[4.4777,51.9244]}},{"type":"Feature","properties":{"name":"Kinderdijk","order":5,"country":"Netherlands","coordinate_source":"GeoNames/OSM/UNESCO or standard city reference; verified 2026-08-24"},"geometry":{"type":"Point","coordinates":[4.6336,51.887]}},{"type":"Feature","properties":{"name":"Ghent","order":6,"country":"Belgium","coordinate_source":"GeoNames/OSM/UNESCO or standard city reference; verified 2026-08-24"},"geometry":{"type":"Point","coordinates":[3.7174,51.0543]}},{"type":"Feature","properties":{"name":"Bruges","order":7,"country":"Belgium","coordinate_source":"GeoNames/OSM/UNESCO or standard city reference; verified 2026-08-24"},"geometry":{"type":"Point","coordinates":[3.2247,51.2093]}},{"type":"Feature","properties":{"name":"Ypres","order":8,"country":"Belgium","coordinate_source":"GeoNames/OSM/UNESCO or standard city reference; verified 2026-08-24"},"geometry":{"type":"Point","coordinates":[2.8869,50.8517]}},{"type":"Feature","properties":{"name":"Lille","order":9,"country":"France","coordinate_source":"GeoNames/OSM/UNESCO or standard city reference; verified 2026-08-24"},"geometry":{"type":"Point","coordinates":[3.0573,50.6292]}},{"type":"Feature","properties":{"name":"Amiens","order":10,"country":"France","coordinate_source":"GeoNames/OSM/UNESCO or standard city reference; verified 2026-08-24"},"geometry":{"type":"Point","coordinates":[2.2958,49.8941]}},{"type":"Feature","properties":{"name":"Rouen","order":11,"country":"France","coordinate_source":"GeoNames/OSM/UNESCO or standard city reference; verified 2026-08-24"},"geometry":{"type":"Point","coordinates":[1.0993,49.4432]}},{"type":"Feature","properties":{"name":"Etretat","order":12,"country":"France","coordinate_source":"GeoNames/OSM/UNESCO or standard city reference; verified 2026-08-24"},"geometry":{"type":"Point","coordinates":[0.205,49.706]}},{"type":"Feature","properties":{"name":"Honfleur","order":13,"country":"France","coordinate_source":"GeoNames/OSM/UNESCO or standard city reference; verified 2026-08-24"},"geometry":{"type":"Point","coordinates":[0.2339,49.4198]}},{"type":"Feature","properties":{"name":"Bayeux","order":14,"country":"France","coordinate_source":"GeoNames/OSM/UNESCO or standard city reference; verified 2026-08-24"},"geometry":{"type":"Point","coordinates":[-0.703,49.2765]}},{"type":"Feature","properties":{"name":"Mont-Saint-Michel","order":15,"country":"France","coordinate_source":"GeoNames/OSM/UNESCO or standard city reference; verified 2026-08-24"},"geometry":{"type":"Point","coordinates":[-1.5115,48.6361]}},{"type":"Feature","properties":{"name":"Saint-Malo","order":16,"country":"France","coordinate_source":"GeoNames/OSM/UNESCO or standard city reference; verified 2026-08-24"},"geometry":{"type":"Point","coordinates":[-2.0083,48.6493]}},{"type":"Feature","properties":{"name":"Perros-Guirec","order":17,"country":"France","coordinate_source":"GeoNames/OSM/UNESCO or standard city reference; verified 2026-08-24"},"geometry":{"type":"Point","coordinates":[-3.4431,48.8143]}},{"type":"Feature","properties":{"name":"Morlaix","order":18,"country":"France","coordinate_source":"GeoNames/OSM/UNESCO or standard city reference; verified 2026-08-24"},"geometry":{"type":"Point","coordinates":[-3.827,48.5778]}},{"type":"Feature","properties":{"name":"Crozon","order":19,"country":"France","coordinate_source":"GeoNames/OSM/UNESCO or standard city reference; verified 2026-08-24"},"geometry":{"type":"Point","coordinates":[-4.489,48.246]}},{"type":"Feature","properties":{"name":"Brest","order":20,"country":"France","coordinate_source":"GeoNames/OSM/UNESCO or standard city reference; verified 2026-08-24"},"geometry":{"type":"Point","coordinates":[-4.4861,48.3904]}},{"type":"Feature","properties":{"name":"Quimper","order":21,"country":"France","coordinate_source":"GeoNames/OSM/UNESCO or standard city reference; verified 2026-08-24"},"geometry":{"type":"Point","coordinates":[-4.1025,47.9959]}},{"type":"Feature","properties":{"name":"Carnac","order":22,"country":"France","coordinate_source":"GeoNames/OSM/UNESCO or standard city reference; verified 2026-08-24"},"geometry":{"type":"Point","coordinates":[-3.0786,47.5847]}},{"type":"Feature","properties":{"name":"Vannes","order":23,"country":"France","coordinate_source":"GeoNames/OSM/UNESCO or standard city reference; verified 2026-08-24"},"geometry":{"type":"Point","coordinates":[-2.7608,47.6582]}},{"type":"Feature","properties":{"name":"Nantes","order":24,"country":"France","coordinate_source":"GeoNames/OSM/UNESCO or standard city reference; verified 2026-08-24"},"geometry":{"type":"Point","coordinates":[-1.5536,47.2184]}}]}