{"type":"FeatureCollection","features":[
{"type":"Feature","properties":{"from":"London","to":"Oxford","mode":"rail","geometry_note":"planning connector"},"geometry":{"type":"LineString","coordinates":[[-0.1276,51.5072],[-1.2577,51.752]]}},
{"type":"Feature","properties":{"from":"Oxford","to":"London","mode":"rail","geometry_note":"planning connector"},"geometry":{"type":"LineString","coordinates":[[-1.2577,51.752],[-0.1276,51.5072]]}},
{"type":"Feature","properties":{"from":"London","to":"York","mode":"rail","geometry_note":"planning connector"},"geometry":{"type":"LineString","coordinates":[[-0.1276,51.5072],[-1.0827,53.9583]]}},
{"type":"Feature","properties":{"from":"York","to":"Durham","mode":"rail","geometry_note":"planning connector"},"geometry":{"type":"LineString","coordinates":[[-1.0827,53.9583],[-1.5759,54.7753]]}},
{"type":"Feature","properties":{"from":"Durham","to":"Newcastle upon Tyne","mode":"rail","geometry_note":"planning connector"},"geometry":{"type":"LineString","coordinates":[[-1.5759,54.7753],[-1.6178,54.9783]]}},
{"type":"Feature","properties":{"from":"Newcastle upon Tyne","to":"St Andrews","mode":"rail","geometry_note":"planning connector; final local connection to St Andrews"},"geometry":{"type":"LineString","coordinates":[[-1.6178,54.9783],[-2.7967,56.3398]]}},
{"type":"Feature","properties":{"from":"St Andrews","to":"Aberdeen","mode":"rail","geometry_note":"planning connector; via Leuchars/Dundee area"},"geometry":{"type":"LineString","coordinates":[[-2.7967,56.3398],[-2.0938,57.1497]]}},
{"type":"Feature","properties":{"from":"Aberdeen","to":"Braemar / Royal Deeside","mode":"road","geometry_note":"planning connector"},"geometry":{"type":"LineString","coordinates":[[-2.0938,57.1497],[-3.3978,57.0064]]}},
{"type":"Feature","properties":{"from":"Braemar / Royal Deeside","to":"Aviemore / Cairngorms","mode":"road","geometry_note":"planning connector"},"geometry":{"type":"LineString","coordinates":[[-3.3978,57.0064],[-3.8282,57.195]]}},
{"type":"Feature","properties":{"from":"Aviemore / Cairngorms","to":"Inverness","mode":"road","geometry_note":"planning connector"},"geometry":{"type":"LineString","coordinates":[[-3.8282,57.195],[-4.2247,57.4778]]}},
{"type":"Feature","properties":{"from":"Inverness","to":"Lochinver / Assynt","mode":"road","geometry_note":"planning connector"},"geometry":{"type":"LineString","coordinates":[[-4.2247,57.4778],[-5.2438,58.1454]]}},
{"type":"Feature","properties":{"from":"Lochinver / Assynt","to":"Ullapool","mode":"road","geometry_note":"planning connector"},"geometry":{"type":"LineString","coordinates":[[-5.2438,58.1454],[-5.1613,57.8954]]}},
{"type":"Feature","properties":{"from":"Ullapool","to":"Torridon","mode":"road","geometry_note":"planning connector"},"geometry":{"type":"LineString","coordinates":[[-5.1613,57.8954],[-5.5142,57.5469]]}},
{"type":"Feature","properties":{"from":"Torridon","to":"Applecross","mode":"road","geometry_note":"planning connector"},"geometry":{"type":"LineString","coordinates":[[-5.5142,57.5469],[-5.818,57.4336]]}},
{"type":"Feature","properties":{"from":"Applecross","to":"Portree / Isle of Skye","mode":"road","geometry_note":"planning connector"},"geometry":{"type":"LineString","coordinates":[[-5.818,57.4336],[-6.1942,57.4125]]}},
{"type":"Feature","properties":{"from":"Portree / Isle of Skye","to":"Elgol / Cuillin","mode":"road","geometry_note":"planning connector"},"geometry":{"type":"LineString","coordinates":[[-6.1942,57.4125],[-6.1649,57.1445]]}},
{"type":"Feature","properties":{"from":"Elgol / Cuillin","to":"Armadale","mode":"road","geometry_note":"planning connector"},"geometry":{"type":"LineString","coordinates":[[-6.1649,57.1445],[-5.8945,57.0647]]}},
{"type":"Feature","properties":{"from":"Armadale","to":"Mallaig","mode":"ferry","geometry_note":"planning connector across CalMac ferry leg"},"geometry":{"type":"LineString","coordinates":[[-5.8945,57.0647],[-5.8272,57.0056]]}},
{"type":"Feature","properties":{"from":"Mallaig","to":"Glenfinnan","mode":"road","geometry_note":"planning connector"},"geometry":{"type":"LineString","coordinates":[[-5.8272,57.0056],[-5.4495,56.8714]]}},
{"type":"Feature","properties":{"from":"Glenfinnan","to":"Glencoe","mode":"road","geometry_note":"planning connector"},"geometry":{"type":"LineString","coordinates":[[-5.4495,56.8714],[-5.1027,56.6826]]}},
{"type":"Feature","properties":{"from":"Glencoe","to":"Stirling","mode":"road","geometry_note":"planning connector"},"geometry":{"type":"LineString","coordinates":[[-5.1027,56.6826],[-3.9369,56.1165]]}},
{"type":"Feature","properties":{"from":"Stirling","to":"Edinburgh","mode":"road","geometry_note":"planning connector"},"geometry":{"type":"LineString","coordinates":[[-3.9369,56.1165],[-3.1883,55.9533]]}}
],"properties":{"geometry_note":"Lines connect verified place centres for route planning and are not exact road or railway tracks."}}
