{"type":"FeatureCollection","features":[
{"type":"Feature","properties":{"name":"London","order":1,"category":"city"},"geometry":{"type":"Point","coordinates":[-0.1276,51.5072]}},
{"type":"Feature","properties":{"name":"Oxford","order":2,"category":"day-trip"},"geometry":{"type":"Point","coordinates":[-1.2577,51.752]}},
{"type":"Feature","properties":{"name":"York","order":3,"category":"city"},"geometry":{"type":"Point","coordinates":[-1.0827,53.9583]}},
{"type":"Feature","properties":{"name":"Durham","order":4,"category":"city"},"geometry":{"type":"Point","coordinates":[-1.5759,54.7753]}},
{"type":"Feature","properties":{"name":"Newcastle upon Tyne","order":5,"category":"city"},"geometry":{"type":"Point","coordinates":[-1.6178,54.9783]}},
{"type":"Feature","properties":{"name":"St Andrews","order":6,"category":"city"},"geometry":{"type":"Point","coordinates":[-2.7967,56.3398]}},
{"type":"Feature","properties":{"name":"Aberdeen","order":7,"category":"city"},"geometry":{"type":"Point","coordinates":[-2.0938,57.1497]}},
{"type":"Feature","properties":{"name":"Braemar / Royal Deeside","order":8,"category":"road-trip"},"geometry":{"type":"Point","coordinates":[-3.3978,57.0064]}},
{"type":"Feature","properties":{"name":"Aviemore / Cairngorms","order":9,"category":"nature"},"geometry":{"type":"Point","coordinates":[-3.8282,57.195]}},
{"type":"Feature","properties":{"name":"Inverness","order":10,"category":"city"},"geometry":{"type":"Point","coordinates":[-4.2247,57.4778]}},
{"type":"Feature","properties":{"name":"Lochinver / Assynt","order":11,"category":"nature"},"geometry":{"type":"Point","coordinates":[-5.2438,58.1454]}},
{"type":"Feature","properties":{"name":"Ullapool","order":12,"category":"road-trip"},"geometry":{"type":"Point","coordinates":[-5.1613,57.8954]}},
{"type":"Feature","properties":{"name":"Torridon","order":13,"category":"nature"},"geometry":{"type":"Point","coordinates":[-5.5142,57.5469]}},
{"type":"Feature","properties":{"name":"Applecross","order":14,"category":"road-trip"},"geometry":{"type":"Point","coordinates":[-5.818,57.4336]}},
{"type":"Feature","properties":{"name":"Portree / Isle of Skye","order":15,"category":"island"},"geometry":{"type":"Point","coordinates":[-6.1942,57.4125]}},
{"type":"Feature","properties":{"name":"Elgol / Cuillin","order":16,"category":"nature"},"geometry":{"type":"Point","coordinates":[-6.1649,57.1445]}},
{"type":"Feature","properties":{"name":"Armadale","order":17,"category":"ferry"},"geometry":{"type":"Point","coordinates":[-5.8945,57.0647]}},
{"type":"Feature","properties":{"name":"Mallaig","order":18,"category":"ferry"},"geometry":{"type":"Point","coordinates":[-5.8272,57.0056]}},
{"type":"Feature","properties":{"name":"Glenfinnan","order":19,"category":"road-trip"},"geometry":{"type":"Point","coordinates":[-5.4495,56.8714]}},
{"type":"Feature","properties":{"name":"Glencoe","order":20,"category":"nature"},"geometry":{"type":"Point","coordinates":[-5.1027,56.6826]}},
{"type":"Feature","properties":{"name":"Stirling","order":21,"category":"city"},"geometry":{"type":"Point","coordinates":[-3.9369,56.1165]}},
{"type":"Feature","properties":{"name":"Edinburgh","order":22,"category":"city"},"geometry":{"type":"Point","coordinates":[-3.1883,55.9533]}}
],"properties":{"coordinate_note":"Geographic place-centre coordinates; longitude,latitude order. Sanity-checked for country, relative position and island/mainland placement."}}
