{"type":"FeatureCollection","features":[{"type":"Feature","properties":{"from":"Guatemala City","to":"Antigua Guatemala","mode":"road","geometry_quality":"planning connector between verified stop coordinates; not road-centerline routing"},"geometry":{"type":"LineString","coordinates":[[-90.513268,14.640725],[-90.7337,14.5568]]}},{"type":"Feature","properties":{"from":"Antigua Guatemala","to":"Acatenango / Fuego hike","mode":"hike","geometry_quality":"planning connector between verified stop coordinates; not road-centerline routing"},"geometry":{"type":"LineString","coordinates":[[-90.7337,14.5568],[-90.876,14.501]]}},{"type":"Feature","properties":{"from":"Acatenango / Fuego hike","to":"Antigua Guatemala","mode":"hike_return","geometry_quality":"planning connector between verified stop coordinates; not road-centerline routing"},"geometry":{"type":"LineString","coordinates":[[-90.876,14.501],[-90.7337,14.5568]]}},{"type":"Feature","properties":{"from":"Antigua Guatemala","to":"Guatemala City","mode":"road_airport","geometry_quality":"planning connector between verified stop coordinates; not road-centerline routing"},"geometry":{"type":"LineString","coordinates":[[-90.7337,14.5568],[-90.513268,14.640725]]}},{"type":"Feature","properties":{"from":"Guatemala City","to":"Flores","mode":"flight","geometry_quality":"planning connector between verified stop coordinates; not road-centerline routing"},"geometry":{"type":"LineString","coordinates":[[-90.513268,14.640725],[-89.8915,16.9299]]}},{"type":"Feature","properties":{"from":"Flores","to":"Tikal National Park","mode":"road","geometry_quality":"planning connector between verified stop coordinates; not road-centerline routing"},"geometry":{"type":"LineString","coordinates":[[-89.8915,16.9299],[-89.616667,17.216667]]}},{"type":"Feature","properties":{"from":"Tikal National Park","to":"Flores","mode":"road_return","geometry_quality":"planning connector between verified stop coordinates; not road-centerline routing"},"geometry":{"type":"LineString","coordinates":[[-89.616667,17.216667],[-89.8915,16.9299]]}},{"type":"Feature","properties":{"from":"Flores","to":"San Ignacio","mode":"road_border","geometry_quality":"planning connector between verified stop coordinates; not road-centerline routing"},"geometry":{"type":"LineString","coordinates":[[-89.8915,16.9299],[-89.0762,17.1528]]}},{"type":"Feature","properties":{"from":"San Ignacio","to":"Belize City","mode":"road","geometry_quality":"planning connector between verified stop coordinates; not road-centerline routing"},"geometry":{"type":"LineString","coordinates":[[-89.0762,17.1528],[-88.1989,17.5003]]}},{"type":"Feature","properties":{"from":"Belize City","to":"Caye Caulker","mode":"ferry","geometry_quality":"planning connector between verified stop coordinates; not road-centerline routing"},"geometry":{"type":"LineString","coordinates":[[-88.1989,17.5003],[-88.025,17.7425]]}},{"type":"Feature","properties":{"from":"Caye Caulker","to":"Belize City","mode":"ferry_return","geometry_quality":"planning connector between verified stop coordinates; not road-centerline routing"},"geometry":{"type":"LineString","coordinates":[[-88.025,17.7425],[-88.1989,17.5003]]}},{"type":"Feature","properties":{"from":"Belize City","to":"Cancún","mode":"flight","geometry_quality":"planning connector between verified stop coordinates; not road-centerline routing"},"geometry":{"type":"LineString","coordinates":[[-88.1989,17.5003],[-86.8426,21.1527]]}},{"type":"Feature","properties":{"from":"Cancún","to":"Valladolid","mode":"road","geometry_quality":"planning connector between verified stop coordinates; not road-centerline routing"},"geometry":{"type":"LineString","coordinates":[[-86.8426,21.1527],[-88.2017,20.6903]]}},{"type":"Feature","properties":{"from":"Valladolid","to":"Chichén Itzá","mode":"road","geometry_quality":"planning connector between verified stop coordinates; not road-centerline routing"},"geometry":{"type":"LineString","coordinates":[[-88.2017,20.6903],[-88.5681,20.681]]}},{"type":"Feature","properties":{"from":"Chichén Itzá","to":"Valladolid","mode":"road_return","geometry_quality":"planning connector between verified stop coordinates; not road-centerline routing"},"geometry":{"type":"LineString","coordinates":[[-88.5681,20.681],[-88.2017,20.6903]]}},{"type":"Feature","properties":{"from":"Valladolid","to":"Cancún","mode":"road","geometry_quality":"planning connector between verified stop coordinates; not road-centerline routing"},"geometry":{"type":"LineString","coordinates":[[-88.2017,20.6903],[-86.8426,21.1527]]}}]}
