{"type":"FeatureCollection","features":[{"type":"Feature","properties":{"order":1,"name":"Guatemala City","country":"Guatemala","coordinate_source":"GeoNames / UN cross-check"},"geometry":{"type":"Point","coordinates":[-90.513268,14.640725]}},{"type":"Feature","properties":{"order":2,"name":"Antigua Guatemala","country":"Guatemala","coordinate_source":"OpenStreetMap / Mapcarta"},"geometry":{"type":"Point","coordinates":[-90.7337,14.5568]}},{"type":"Feature","properties":{"order":3,"name":"Acatenango / Fuego hike","country":"Guatemala","coordinate_source":"Smithsonian Global Volcanism Program (Acatenango)"},"geometry":{"type":"Point","coordinates":[-90.876,14.501]}},{"type":"Feature","properties":{"order":4,"name":"Lake Atitlán","country":"Guatemala","coordinate_source":"published lake coordinates"},"geometry":{"type":"Point","coordinates":[-91.19245,14.702408]}},{"type":"Feature","properties":{"order":5,"name":"Semuc Champey","country":"Guatemala","coordinate_source":"OpenStreetMap / Mapcarta"},"geometry":{"type":"Point","coordinates":[-89.9581,15.5338]}},{"type":"Feature","properties":{"order":6,"name":"Flores","country":"Guatemala","coordinate_source":"OpenStreetMap / Mapcarta"},"geometry":{"type":"Point","coordinates":[-89.8915,16.9299]}},{"type":"Feature","properties":{"order":7,"name":"Tikal National Park","country":"Guatemala","coordinate_source":"UNESCO World Heritage Centre"},"geometry":{"type":"Point","coordinates":[-89.616667,17.216667]}},{"type":"Feature","properties":{"order":8,"name":"San Ignacio","country":"Belize","coordinate_source":"OpenStreetMap / Mapcarta"},"geometry":{"type":"Point","coordinates":[-89.0762,17.1528]}},{"type":"Feature","properties":{"order":9,"name":"Belize City","country":"Belize","coordinate_source":"OpenStreetMap / Mapcarta"},"geometry":{"type":"Point","coordinates":[-88.1989,17.5003]}},{"type":"Feature","properties":{"order":10,"name":"Caye Caulker","country":"Belize","coordinate_source":"OpenStreetMap / Mapcarta"},"geometry":{"type":"Point","coordinates":[-88.025,17.7425]}},{"type":"Feature","properties":{"order":11,"name":"Bacalar","country":"Mexico","coordinate_source":"OpenStreetMap / Mapcarta"},"geometry":{"type":"Point","coordinates":[-88.3923,18.6783]}},{"type":"Feature","properties":{"order":12,"name":"Valladolid","country":"Mexico","coordinate_source":"OpenStreetMap / Mapcarta"},"geometry":{"type":"Point","coordinates":[-88.2017,20.6903]}},{"type":"Feature","properties":{"order":13,"name":"Chichén Itzá","country":"Mexico","coordinate_source":"UNESCO protected-property coordinate"},"geometry":{"type":"Point","coordinates":[-88.5681,20.681]}},{"type":"Feature","properties":{"order":14,"name":"Cancún","country":"Mexico","coordinate_source":"OpenStreetMap / Mapcarta"},"geometry":{"type":"Point","coordinates":[-86.8426,21.1527]}},{"type":"Feature","properties":{"order":15,"name":"Mexico City (optional)","country":"Mexico","coordinate_source":"OpenStreetMap / Mapcarta"},"geometry":{"type":"Point","coordinates":[-99.1332,19.4326]}}]}
