{"type":"FeatureCollection","features":[{"type":"Feature","properties":{"order":1,"from":"Helsinki","to":"Rovaniemi","mode":"train","geometry_note":"straight planning connector between verified stop coordinates; not turn-by-turn road geometry"},"geometry":{"type":"LineString","coordinates":[[24.9384,60.1699],[25.7294,66.5039]]}},{"type":"Feature","properties":{"order":2,"from":"Rovaniemi","to":"Oulanka National Park","mode":"road","geometry_note":"straight planning connector between verified stop coordinates; not turn-by-turn road geometry"},"geometry":{"type":"LineString","coordinates":[[25.7294,66.5039],[29.3386,66.3731]]}},{"type":"Feature","properties":{"order":3,"from":"Oulanka National Park","to":"Riisitunturi National Park","mode":"road","geometry_note":"straight planning connector between verified stop coordinates; not turn-by-turn road geometry"},"geometry":{"type":"LineString","coordinates":[[29.3386,66.3731],[28.4753,66.2287]]}},{"type":"Feature","properties":{"order":4,"from":"Riisitunturi National Park","to":"Pyha-Luosto National Park","mode":"road","geometry_note":"straight planning connector between verified stop coordinates; not turn-by-turn road geometry"},"geometry":{"type":"LineString","coordinates":[[28.4753,66.2287],[26.9629,67.0709]]}},{"type":"Feature","properties":{"order":5,"from":"Pyha-Luosto National Park","to":"Saariselka","mode":"road","geometry_note":"straight planning connector between verified stop coordinates; not turn-by-turn road geometry"},"geometry":{"type":"LineString","coordinates":[[26.9629,67.0709],[27.4197,68.4197]]}},{"type":"Feature","properties":{"order":6,"from":"Saariselka","to":"Inari","mode":"road","geometry_note":"straight planning connector between verified stop coordinates; not turn-by-turn road geometry"},"geometry":{"type":"LineString","coordinates":[[27.4197,68.4197],[27.0288,68.9059]]}},{"type":"Feature","properties":{"order":7,"from":"Inari","to":"Rovaniemi","mode":"road","geometry_note":"straight planning connector between verified stop coordinates; not turn-by-turn road geometry"},"geometry":{"type":"LineString","coordinates":[[27.0288,68.9059],[25.7294,66.5039]]}},{"type":"Feature","properties":{"order":8,"from":"Rovaniemi","to":"Helsinki","mode":"train","geometry_note":"straight planning connector between verified stop coordinates; not turn-by-turn road geometry"},"geometry":{"type":"LineString","coordinates":[[25.7294,66.5039],[24.9384,60.1699]]}},{"type":"Feature","properties":{"order":9,"from":"Helsinki","to":"Tallinn","mode":"ferry","geometry_note":"straight planning connector between verified stop coordinates; not turn-by-turn road geometry"},"geometry":{"type":"LineString","coordinates":[[24.9384,60.1699],[24.7536,59.437]]}},{"type":"Feature","properties":{"order":10,"from":"Tallinn","to":"Lahemaa National Park","mode":"road","geometry_note":"straight planning connector between verified stop coordinates; not turn-by-turn road geometry"},"geometry":{"type":"LineString","coordinates":[[24.7536,59.437],[25.801,59.572]]}},{"type":"Feature","properties":{"order":11,"from":"Lahemaa National Park","to":"Tallinn","mode":"road","geometry_note":"straight planning connector between verified stop coordinates; not turn-by-turn road geometry"},"geometry":{"type":"LineString","coordinates":[[25.801,59.572],[24.7536,59.437]]}},{"type":"Feature","properties":{"order":12,"from":"Tallinn","to":"Riga","mode":"bus","geometry_note":"straight planning connector between verified stop coordinates; not turn-by-turn road geometry"},"geometry":{"type":"LineString","coordinates":[[24.7536,59.437],[24.1052,56.9496]]}},{"type":"Feature","properties":{"order":13,"from":"Riga","to":"Gauja National Park","mode":"road","geometry_note":"straight planning connector between verified stop coordinates; not turn-by-turn road geometry"},"geometry":{"type":"LineString","coordinates":[[24.1052,56.9496],[24.852,57.18]]}},{"type":"Feature","properties":{"order":14,"from":"Gauja National Park","to":"Riga","mode":"road","geometry_note":"straight planning connector between verified stop coordinates; not turn-by-turn road geometry"},"geometry":{"type":"LineString","coordinates":[[24.852,57.18],[24.1052,56.9496]]}},{"type":"Feature","properties":{"order":15,"from":"Riga","to":"Vilnius","mode":"bus","geometry_note":"straight planning connector between verified stop coordinates; not turn-by-turn road geometry"},"geometry":{"type":"LineString","coordinates":[[24.1052,56.9496],[25.2797,54.6872]]}}]}