{"type":"FeatureCollection","features":[{"type":"Feature","properties":{"from":"Svolvær","to":"Reine","mode":"road","geometry_note":"planning connector; not exact road track"},"geometry":{"type":"LineString","coordinates":[[14.5683,68.2343],[13.0894,67.9324]]}},{"type":"Feature","properties":{"from":"Reine","to":"Bodø","mode":"ferry","geometry_note":"planning connector; not exact road track"},"geometry":{"type":"LineString","coordinates":[[13.0894,67.9324],[14.4049,67.2804]]}},{"type":"Feature","properties":{"from":"Bodø","to":"Bergen","mode":"flight","geometry_note":"planning connector; not exact road track"},"geometry":{"type":"LineString","coordinates":[[14.4049,67.2804],[5.3221,60.393]]}},{"type":"Feature","properties":{"from":"Bergen","to":"Aurland / Flåm","mode":"road","geometry_note":"planning connector; not exact road track"},"geometry":{"type":"LineString","coordinates":[[5.3221,60.393],[7.113,60.862]]}},{"type":"Feature","properties":{"from":"Aurland / Flåm","to":"Loen / Olden","mode":"road","geometry_note":"planning connector; not exact road track"},"geometry":{"type":"LineString","coordinates":[[7.113,60.862],[6.849,61.8718]]}},{"type":"Feature","properties":{"from":"Loen / Olden","to":"Geiranger","mode":"road","geometry_note":"planning connector; not exact road track"},"geometry":{"type":"LineString","coordinates":[[6.849,61.8718],[7.2057,62.1015]]}},{"type":"Feature","properties":{"from":"Geiranger","to":"Ålesund","mode":"road","geometry_note":"planning connector; not exact road track"},"geometry":{"type":"LineString","coordinates":[[7.2057,62.1015],[6.1495,62.4722]]}}]}