{"type":"FeatureCollection","features":[{"type":"Feature","properties":{"from":"Tromsø","to":"Sommarøy","mode":"road","geometry_note":"planning connector; not exact road track"},"geometry":{"type":"LineString","coordinates":[[18.9553,69.6492],[18.011,69.6315]]}},{"type":"Feature","properties":{"from":"Sommarøy","to":"Senja / Gryllefjord","mode":"ferry/road","geometry_note":"planning connector; not exact road track"},"geometry":{"type":"LineString","coordinates":[[18.011,69.6315],[17.052,69.3634]]}},{"type":"Feature","properties":{"from":"Senja / Gryllefjord","to":"Andenes","mode":"ferry","geometry_note":"planning connector; not exact road track"},"geometry":{"type":"LineString","coordinates":[[17.052,69.3634],[16.1194,69.3142]]}},{"type":"Feature","properties":{"from":"Andenes","to":"Svolvær","mode":"road","geometry_note":"planning connector; not exact road track"},"geometry":{"type":"LineString","coordinates":[[16.1194,69.3142],[14.5683,68.2343]]}},{"type":"Feature","properties":{"from":"Svolvær","to":"Reine","mode":"road","geometry_note":"planning connector; not exact road track"},"geometry":{"type":"LineString","coordinates":[[14.5683,68.2343],[13.0894,67.9324]]}},{"type":"Feature","properties":{"from":"Reine","to":"Bodø","mode":"ferry","geometry_note":"planning connector; not exact road track"},"geometry":{"type":"LineString","coordinates":[[13.0894,67.9324],[14.4049,67.2804]]}},{"type":"Feature","properties":{"from":"Bodø","to":"Trondheim","mode":"train","geometry_note":"planning connector; not exact road track"},"geometry":{"type":"LineString","coordinates":[[14.4049,67.2804],[10.3951,63.4305]]}},{"type":"Feature","properties":{"from":"Trondheim","to":"Kristiansund","mode":"road","geometry_note":"planning connector; not exact road track"},"geometry":{"type":"LineString","coordinates":[[10.3951,63.4305],[7.7281,63.1103]]}},{"type":"Feature","properties":{"from":"Kristiansund","to":"Atlantic Road","mode":"road","geometry_note":"planning connector; not exact road track"},"geometry":{"type":"LineString","coordinates":[[7.7281,63.1103],[7.3547,63.0168]]}},{"type":"Feature","properties":{"from":"Atlantic Road","to":"Ålesund","mode":"road","geometry_note":"planning connector; not exact road track"},"geometry":{"type":"LineString","coordinates":[[7.3547,63.0168],[6.1495,62.4722]]}},{"type":"Feature","properties":{"from":"Ålesund","to":"Geiranger","mode":"road/ferry","geometry_note":"planning connector; not exact road track"},"geometry":{"type":"LineString","coordinates":[[6.1495,62.4722],[7.2057,62.1015]]}},{"type":"Feature","properties":{"from":"Geiranger","to":"Loen / Olden","mode":"road","geometry_note":"planning connector; not exact road track"},"geometry":{"type":"LineString","coordinates":[[7.2057,62.1015],[6.849,61.8718]]}},{"type":"Feature","properties":{"from":"Loen / Olden","to":"Balestrand","mode":"road","geometry_note":"planning connector; not exact road track"},"geometry":{"type":"LineString","coordinates":[[6.849,61.8718],[6.5287,61.2105]]}},{"type":"Feature","properties":{"from":"Balestrand","to":"Aurland / Flåm","mode":"road/ferry","geometry_note":"planning connector; not exact road track"},"geometry":{"type":"LineString","coordinates":[[6.5287,61.2105],[7.113,60.862]]}},{"type":"Feature","properties":{"from":"Aurland / Flåm","to":"Bergen","mode":"road","geometry_note":"planning connector; not exact road track"},"geometry":{"type":"LineString","coordinates":[[7.113,60.862],[5.3221,60.393]]}},{"type":"Feature","properties":{"from":"Bergen","to":"Odda / Hardanger","mode":"road","geometry_note":"planning connector; not exact road track"},"geometry":{"type":"LineString","coordinates":[[5.3221,60.393],[6.5457,60.0691]]}},{"type":"Feature","properties":{"from":"Odda / Hardanger","to":"Preikestolen","mode":"road","geometry_note":"planning connector; not exact road track"},"geometry":{"type":"LineString","coordinates":[[6.5457,60.0691],[6.1886,58.9864]]}},{"type":"Feature","properties":{"from":"Preikestolen","to":"Stavanger","mode":"road","geometry_note":"planning connector; not exact road track"},"geometry":{"type":"LineString","coordinates":[[6.1886,58.9864],[5.7331,58.97]]}}]}