{"type":"FeatureCollection","features":[{"type":"Feature","properties":{"name":"Tromsø","order":1},"geometry":{"type":"Point","coordinates":[18.9553,69.6492]}},{"type":"Feature","properties":{"name":"Sommarøy","order":2},"geometry":{"type":"Point","coordinates":[18.011,69.6315]}},{"type":"Feature","properties":{"name":"Senja / Gryllefjord","order":3},"geometry":{"type":"Point","coordinates":[17.052,69.3634]}},{"type":"Feature","properties":{"name":"Andenes","order":4},"geometry":{"type":"Point","coordinates":[16.1194,69.3142]}},{"type":"Feature","properties":{"name":"Svolvær","order":5},"geometry":{"type":"Point","coordinates":[14.5683,68.2343]}},{"type":"Feature","properties":{"name":"Reine","order":6},"geometry":{"type":"Point","coordinates":[13.0894,67.9324]}},{"type":"Feature","properties":{"name":"Bodø","order":7},"geometry":{"type":"Point","coordinates":[14.4049,67.2804]}},{"type":"Feature","properties":{"name":"Trondheim","order":8},"geometry":{"type":"Point","coordinates":[10.3951,63.4305]}},{"type":"Feature","properties":{"name":"Kristiansund","order":9},"geometry":{"type":"Point","coordinates":[7.7281,63.1103]}},{"type":"Feature","properties":{"name":"Atlantic Road","order":10},"geometry":{"type":"Point","coordinates":[7.3547,63.0168]}},{"type":"Feature","properties":{"name":"Ålesund","order":11},"geometry":{"type":"Point","coordinates":[6.1495,62.4722]}},{"type":"Feature","properties":{"name":"Geiranger","order":12},"geometry":{"type":"Point","coordinates":[7.2057,62.1015]}},{"type":"Feature","properties":{"name":"Loen / Olden","order":13},"geometry":{"type":"Point","coordinates":[6.849,61.8718]}},{"type":"Feature","properties":{"name":"Balestrand","order":14},"geometry":{"type":"Point","coordinates":[6.5287,61.2105]}},{"type":"Feature","properties":{"name":"Aurland / Flåm","order":15},"geometry":{"type":"Point","coordinates":[7.113,60.862]}},{"type":"Feature","properties":{"name":"Bergen","order":16},"geometry":{"type":"Point","coordinates":[5.3221,60.393]}},{"type":"Feature","properties":{"name":"Odda / Hardanger","order":17},"geometry":{"type":"Point","coordinates":[6.5457,60.0691]}},{"type":"Feature","properties":{"name":"Preikestolen","order":18},"geometry":{"type":"Point","coordinates":[6.1886,58.9864]}},{"type":"Feature","properties":{"name":"Stavanger","order":19},"geometry":{"type":"Point","coordinates":[5.7331,58.97]}}]}